[
    {
        "Altitude(m)": 604234.6216507724,
        "Argument of Periapsis(deg)": 0.0,
        "Eccentricity": 0.0,
        "Inclination(deg)": 60.0,
        "Latitude(deg)": 14.117306597121264,
        "Longitude(deg)": 56.72731258746356,
        "Mean Anomaly(deg)": -196.36359999999996,
        "RAAN(deg)": 345.0,
        "Satellite Name": "Test1 1528",
        "Satellite Number": 1528,
        "Semi-Major Axis(m)": 6980739.136638005,
        "Time(s)": 0
    },
    {
        "Altitude(m)": 604223.4498356223,
        "Argument of Periapsis(deg)": 0.00010418945913296404,
        "Eccentricity": 0.0,
        "Inclination(deg)": 60.0,
        "Latitude(deg)": 13.582443265659613,
        "Longitude(deg)": 57.014222429032515,
        "Mean Anomaly(deg)": -195.74349385453812,
        "RAAN(deg)": 344.99957995086027,
        "Satellite Name": "Test1 1528",
        "Satellite Number": 1528,
        "Semi-Major Axis(m)": 6980739.136638005,
        "Time(s)": 10
    },
    {
        "Altitude(m)": 604215.2332749151,
        "Argument of Periapsis(deg)": 0.0002083789182659281,
        "Eccentricity": 0.0,
        "Inclination(deg)": 60.0,
        "Latitude(deg)": 13.047131793439792,
        "Longitude(deg)": 57.2996617495124,
        "Mean Anomaly(deg)": -195.12338770907638,
        "RAAN(deg)": 344.99915990172053,
        "Satellite Name": "Test1 1528",
        "Satellite Number": 1528,
        "Semi-Major Axis(m)": 6980739.136638005,
        "Time(s)": 20
    },
    {
        "Altitude(m)": 604209.9998608734,
        "Argument of Periapsis(deg)": 0.00031256837739889213,
        "Eccentricity": 0.0,
        "Inclination(deg)": 60.0,
        "Latitude(deg)": 12.511392569215985,
        "Longitude(deg)": 57.58369526245817,
        "Mean Anomaly(deg)": -194.50328156361448,
        "RAAN(deg)": 344.9987398525808,
        "Satellite Name": "Test1 1528",
        "Satellite Number": 1528,
        "Semi-Major Axis(m)": 6980739.136638005,
        "Time(s)": 30
    },
    {
        "Altitude(m)": 604207.7761416881,
        "Argument of Periapsis(deg)": 0.0004167578365318562,
        "Eccentricity": 0.0,
        "Inclination(deg)": 60.0,
        "Latitude(deg)": 11.975245705784715,
        "Longitude(deg)": 57.86638733604193,
        "Mean Anomaly(deg)": -193.88317541815272,
        "RAAN(deg)": 344.99831980344106,
        "Satellite Name": "Test1 1528",
        "Satellite Number": 1528,
        "Semi-Major Axis(m)": 6980739.136638005,
        "Time(s)": 40
    },
    {
        "Altitude(m)": 604208.587305716,
        "Argument of Periapsis(deg)": 0.0005209472956648203,
        "Eccentricity": 0.0,
        "Inclination(deg)": 60.0,
        "Latitude(deg)": 11.438711053930282,
        "Longitude(deg)": 58.14780102476999,
        "Mean Anomaly(deg)": -193.26306927269087,
        "RAAN(deg)": 344.9978997543013,
        "Satellite Name": "Test1 1528",
        "Satellite Number": 1528,
        "Semi-Major Axis(m)": 6980739.136638005,
        "Time(s)": 50
    },
    {
        "Altitude(m)": 604212.4571663598,
        "Argument of Periapsis(deg)": 0.0006251367547977843,
        "Eccentricity": 0.0,
        "Inclination(deg)": 60.0,
        "Latitude(deg)": 10.901808216017013,
        "Longitude(deg)": 58.427998613383984,
        "Mean Anomaly(deg)": -192.64296312722902,
        "RAAN(deg)": 344.99747970516154,
        "Satellite Name": "Test1 1528",
        "Satellite Number": 1528,
        "Semi-Major Axis(m)": 6980739.136638005,
        "Time(s)": 60
    },
    {
        "Altitude(m)": 604219.4081475855,
        "Argument of Periapsis(deg)": 0.0007293262139307483,
        "Eccentricity": 0.0,
        "Inclination(deg)": 60.0,
        "Latitude(deg)": 10.364556559242692,
        "Longitude(deg)": 58.707042160105026,
        "Mean Anomaly(deg)": -192.0228569817672,
        "RAAN(deg)": 344.99705965602186,
        "Satellite Name": "Test1 1528",
        "Satellite Number": 1528,
        "Semi-Major Axis(m)": 6980739.136638005,
        "Time(s)": 70
    },
    {
        "Altitude(m)": 604229.4612701276,
        "Argument of Periapsis(deg)": 0.0008335156730637124,
        "Eccentricity": 0.0,
        "Inclination(deg)": 60.0,
        "Latitude(deg)": 9.826975228571358,
        "Longitude(deg)": 58.98499252637403,
        "Mean Anomaly(deg)": -191.40275083630536,
        "RAAN(deg)": 344.99663960688207,
        "Satellite Name": "Test1 1528",
        "Satellite Number": 1528,
        "Semi-Major Axis(m)": 6980739.136638005,
        "Time(s)": 80
    },
    {
        "Altitude(m)": 604242.6361383843,
        "Argument of Periapsis(deg)": 0.0009377051321966765,
        "Eccentricity": 0.0,
        "Inclination(deg)": 60.0,
        "Latitude(deg)": 9.289083159367138,
        "Longitude(deg)": 59.26190991886612,
        "Mean Anomaly(deg)": -190.7826446908435,
        "RAAN(deg)": 344.99621955774234,
        "Satellite Name": "Test1 1528",
        "Satellite Number": 1528,
        "Semi-Major Axis(m)": 6980739.136638005,
        "Time(s)": 90
    },
    {
        "Altitude(m)": 604258.9509279666,
        "Argument of Periapsis(deg)": 0.0010418945913296407,
        "Eccentricity": 0.0,
        "Inclination(deg)": 60.0,
        "Latitude(deg)": 8.750899089743864,
        "Longitude(deg)": 59.53785443093558,
        "Mean Anomaly(deg)": -190.16253854538166,
        "RAAN(deg)": 344.9957995086026,
        "Satellite Name": "Test1 1528",
        "Satellite Number": 1528,
        "Semi-Major Axis(m)": 6980739.136638005,
        "Time(s)": 100
    },
    {
        "Altitude(m)": 604278.4223739788,
        "Argument of Periapsis(deg)": 0.0011460840504626045,
        "Eccentricity": 0.0,
        "Inclination(deg)": 60.0,
        "Latitude(deg)": 8.212441572647423,
        "Longitude(deg)": 59.81288507064558,
        "Mean Anomaly(deg)": -189.54243239991987,
        "RAAN(deg)": 344.99537945946287,
        "Satellite Name": "Test1 1528",
        "Satellite Number": 1528,
        "Semi-Major Axis(m)": 6980739.136638005,
        "Time(s)": 110
    },
    {
        "Altitude(m)": 604301.0657599743,
        "Argument of Periapsis(deg)": 0.0012502735095955685,
        "Eccentricity": 0.0,
        "Inclination(deg)": 60.0,
        "Latitude(deg)": 7.673728987689236,
        "Longitude(deg)": 60.08706030116214,
        "Mean Anomaly(deg)": -188.922326254458,
        "RAAN(deg)": 344.99495941032313,
        "Satellite Name": "Test1 1528",
        "Satellite Number": 1528,
        "Semi-Major Axis(m)": 6980739.136638005,
        "Time(s)": 120
    },
    {
        "Altitude(m)": 604326.8949076249,
        "Argument of Periapsis(deg)": 0.0013544629687285324,
        "Eccentricity": 0.0,
        "Inclination(deg)": 60.0,
        "Latitude(deg)": 7.1347795527475215,
        "Longitude(deg)": 60.36043858066628,
        "Mean Anomaly(deg)": -188.30222010899615,
        "RAAN(deg)": 344.99453936118334,
        "Satellite Name": "Test1 1528",
        "Satellite Number": 1528,
        "Semi-Major Axis(m)": 6980739.136638005,
        "Time(s)": 130
    },
    {
        "Altitude(m)": 604355.9221671215,
        "Argument of Periapsis(deg)": 0.0014586524278614966,
        "Eccentricity": 0.0,
        "Inclination(deg)": 60.0,
        "Latitude(deg)": 6.595611335348871,
        "Longitude(deg)": 60.63307738894182,
        "Mean Anomaly(deg)": -187.6821139635343,
        "RAAN(deg)": 344.9941193120436,
        "Satellite Name": "Test1 1528",
        "Satellite Number": 1528,
        "Semi-Major Axis(m)": 6980739.136638005,
        "Time(s)": 140
    },
    {
        "Altitude(m)": 604388.1584082539,
        "Argument of Periapsis(deg)": 0.0015628418869944607,
        "Eccentricity": 0.0,
        "Inclination(deg)": 60.0,
        "Latitude(deg)": 6.056242263850308,
        "Longitude(deg)": 60.90503376641499,
        "Mean Anomaly(deg)": -187.0620078180725,
        "RAAN(deg)": 344.99369926290393,
        "Satellite Name": "Test1 1528",
        "Satellite Number": 1528,
        "Semi-Major Axis(m)": 6980739.136638005,
        "Time(s)": 150
    },
    {
        "Altitude(m)": 604423.6130122693,
        "Argument of Periapsis(deg)": 0.0016670313461274247,
        "Eccentricity": 0.0,
        "Inclination(deg)": 60.0,
        "Latitude(deg)": 5.516690138434947,
        "Longitude(deg)": 61.17636485280183,
        "Mean Anomaly(deg)": -186.44190167261064,
        "RAAN(deg)": 344.99327921376414,
        "Satellite Name": "Test1 1528",
        "Satellite Number": 1528,
        "Semi-Major Axis(m)": 6980739.136638005,
        "Time(s)": 160
    },
    {
        "Altitude(m)": 604462.29386441,
        "Argument of Periapsis(deg)": 0.0017712208052603888,
        "Eccentricity": 0.0,
        "Inclination(deg)": 60.0,
        "Latitude(deg)": 4.976972641935092,
        "Longitude(deg)": 61.44712691252023,
        "Mean Anomaly(deg)": -185.82179552714888,
        "RAAN(deg)": 344.9928591646244,
        "Satellite Name": "Test1 1528",
        "Satellite Number": 1528,
        "Semi-Major Axis(m)": 6980739.136638005,
        "Time(s)": 170
    },
    {
        "Altitude(m)": 604504.2073472094,
        "Argument of Periapsis(deg)": 0.001875410264393353,
        "Eccentricity": 0.0,
        "Inclination(deg)": 60.0,
        "Latitude(deg)": 4.437107350500151,
        "Longitude(deg)": 61.717375872641824,
        "Mean Anomaly(deg)": -185.20168938168703,
        "RAAN(deg)": 344.9924391154847,
        "Satellite Name": "Test1 1528",
        "Satellite Number": 1528,
        "Semi-Major Axis(m)": 6980739.136638005,
        "Time(s)": 180
    },
    {
        "Altitude(m)": 604549.3583345192,
        "Argument of Periapsis(deg)": 0.0019795997235263173,
        "Eccentricity": 0.0,
        "Inclination(deg)": 60.0,
        "Latitude(deg)": 3.897111744123583,
        "Longitude(deg)": 61.98716786054054,
        "Mean Anomaly(deg)": -184.58158323622524,
        "RAAN(deg)": 344.99201906634494,
        "Satellite Name": "Test1 1528",
        "Satellite Number": 1528,
        "Semi-Major Axis(m)": 6980739.136638005,
        "Time(s)": 190
    }
]